#dP2024  8  4  0  0  0.00000000      96 __u+U IGS20 FIT  IAC
## 2326      0.00000000   900.00000000 60526 0.0000000000000
+   53   G02G03G04G05G06G07G08G09G10G11G12G13G14G15G16G17G18
+        G19G20G21G22G23G24G25G26G27G28G29G30G31G32R01R02R03
+        R04R05R07R08R09R11R12R14R15R16R17R18R19R20R21R22R24
+        R25R26  0  0  0  0  0  0  0  0  0  0  0  0  0  0  0
+          0  0  0  0  0  0  0  0  0  0  0  0  0  0  0  0  0
++         7  6  7  7  7  6  6  7  6  7  7  8  7  6  7  7  6
++         6  7  7  7  6  6  7  7  7  8  7  7  7  7  6  7  8
++         7  7  7  7  6  7  7  6  7  7  7  7  8  8  7  7  7
++         7  8  0  0  0  0  0  0  0  0  0  0  0  0  0  0  0
++         0  0  0  0  0  0  0  0  0  0  0  0  0  0  0  0  0
%c M  cc GPS ccc cccc cccc cccc cccc ccccc ccccc ccccc ccccc
%c cc cc ccc ccc cccc cccc cccc cccc ccccc ccccc ccccc ccccc
%f  0.0000000  0.000000000  0.00000000000  0.000000000000000
%f  0.0000000  0.000000000  0.00000000000  0.000000000000000
%i    0    0    0    0      0      0      0      0         0
%i    0    0    0    0      0      0      0      0         0
/* INFORMATION & ANALYSIS CENTER (IAC)      ULTRA-RAPID DATA
/* S/V CLOCKS ARE ALIGNED TO GNSS TIME                      
/* G:C1WC2W R:C1PC2P E:C1XC5X C:C2IC6I J:C1CC2S             
/* PCV:IGS20_2317 OL/AL:FES2004  NONE     YN ORB:CoN CLK:CoN
*  2024 08 04 10 30  0.00000000
PG02  18213.272849   6083.916622  18956.362674   -385.773859
PG03  19170.219978  -7442.229910  16578.000698    486.411357
PG04  26201.585136    468.981493  -4752.144984    417.421864
PG05 -12394.395092  -8547.706600 -22064.274506   -182.053776
PG06  -3773.492204 -24564.978246   9279.736581    119.980275
PG07  10463.218944 -12417.857750 -20407.054415    -57.412372
PG08  25032.424110   6728.236646  -6860.798442    302.237961
PG09  20563.687479  -8547.746487 -14603.594537    300.324362
PG10  -8554.307992  22938.523902  10081.932124    -84.296819
PG11 -12431.356330 -23014.146491  -4781.449966   -716.234499
PG12 -19132.546501   3405.086627  17804.835063   -527.685796
PG13 -19088.383300 -13821.690418 -12700.741295    668.765925
PG14  11861.991008 -22811.195457   6225.129587    464.569067
PG15 -25483.583208  -4100.320074  -7160.638708    188.730566
PG16   8992.424064  12800.889619 -21752.145352   -217.948531
PG17   6753.451127 -14127.135246  21892.933040    662.857709
PG18  -9841.200934  13102.430791 -20838.918100   -643.167162
PG19  -3760.922230 -15648.120251  21040.137566    519.900882
PG20  -5954.324130 -17934.716966 -18657.156133    372.041597
PG21  18962.732678  12089.444565  15327.196623    104.922868
PG22   6346.828934 -22057.406985  14030.745890    -47.449789
PG23 -16245.131786  20728.134246  -2364.414522    289.498800
PG24 -18800.665714  -8435.394943  16544.835899   -485.433413
PG25 -19324.688235  14484.817628  10418.205391    499.070327
PG26     -3.048860  21704.148085 -15211.373768    107.219667
PG27  17527.597367  12865.221567 -15828.379867    -32.495957
PG28   2801.046790  23911.510183  11206.510032   -358.984452
PG29 -23349.002934   4110.570666 -12148.327758   -585.984668
PG30   2736.213592 -21424.561524 -15128.491923   -346.023109
PG31  10302.347090  24249.670611   -309.431016   -226.191758
PG32  -3859.555005  14895.867822  21850.382374   -608.154289
PR01  16032.913657 -12423.193991 -15464.211853     93.459464
PR02   -628.946049 -10882.367530 -23023.816464    -23.976395
PR03 -17907.879589  -3793.165936 -17692.793849    105.007218
PR04 -24840.180738   4975.643268  -2889.736091    248.339071
PR05 -18574.460477  11110.573583  13486.882035    135.559413
PR07  18454.926736   3487.684429  17322.981111     88.090318
PR08  24834.470591  -5246.129156   2765.564001     -6.268331
PR09  -1087.547487  23954.869482  -8797.163486    201.473576
PR11  11991.882936  -4653.238843 -22008.102972     16.002711
PR12  10099.343861 -21662.538206  -8894.033421     43.235809
PR14  -7492.718898 -12236.747520  21102.432585     26.766616
PR15 -12348.846862   6359.683352  21422.244992     77.195181
PR16 -10051.708124  21602.583575   9177.807333     27.968080
PR17 -18923.908229 -16724.739552  -3764.281388    110.553023
PR18 -16995.949890  -5877.873119 -18058.858227    155.342069
PR19  -8195.354171   6444.116450 -23282.936651   -286.327107
PR20   8816.732600  19264.961299 -14223.045095   -117.159909
PR21  18627.500852  17090.498728   3256.744810   -123.157678
PR22  16646.507261   5069.812624  18677.381387     76.174732
PR24  -9856.313410 -19165.765997  13681.119334    -66.439768
PR25  18353.020740  17215.009714   4098.104751    -99.390271
PR26  24713.890131  -4706.767542   4157.874122      7.854836
*  2024 08 04 10 45  0.00000000
PG02  19125.573032   7842.992929  17326.416944   -385.766945
PG03  18121.132631  -5703.677980  18345.934492    486.425046
PG04  26556.169566    737.537598  -1928.092342    417.428714
PG05 -11084.514983 -10641.184877 -21841.273432   -182.054992
PG06  -3127.318452 -23541.680969  11845.290240    119.958750
PG07  11619.103130 -10209.500134 -21023.320575    -57.406420
PG08  24113.054938   6917.329239  -9468.027400    302.251571
PG09  22080.201947  -8272.763874 -12367.604943    300.338184
PG10  -9265.511303  23639.176671   7397.977486    -84.306420
PG11 -12368.665961 -23461.532391  -1952.870517   -716.239877
PG12 -17893.718499   1612.076938  19267.026346   -527.688470
PG13 -17554.053626 -13638.921278 -14931.824256    668.767794
PG14  12436.719123 -23080.879048   3461.877876    464.576962
PG15 -24604.857682  -4446.755717  -9732.315053    188.734540
PG16   7425.608395  14608.787752 -21148.309839   -217.939237
PG17   9102.355946 -13765.214415  21265.905409    662.849796
PG18 -10911.355435  10919.983270 -21569.601027   -643.170252
PG19  -1329.257829 -15236.676561  21587.587660    519.905797
PG20  -4980.204310 -19747.200172 -17062.595574    372.041441
PG21  19648.991084  13463.645147  13193.083577    104.920657
PG22   7377.923395 -23027.532567  11734.339501    -47.453536
PG23 -16187.523807  20243.247986  -5226.951351    289.506621
PG24 -19580.700525 -10125.588859  14670.143739   -485.434266
PG25 -18787.258774  13179.063994  12809.756112    499.070593
PG26  -1041.037362  22975.446208 -13111.614991    107.212991
PG27  15671.369844  12873.534219 -17657.591911    -32.496548
PG28   1960.472052  22750.308802  13554.529175   -358.998148
PG29 -24542.925330   3738.904820  -9660.908983   -585.983045
PG30   3760.713977 -19832.793496 -16973.533040   -346.017159
PG31   9961.257692  24235.703445   2552.336163   -226.191387
PG32  -6282.091739  14691.608995  21400.129005   -608.152046
PR01  17658.225282 -13088.542279 -12936.897695     93.460729
PR02   2073.210549 -11697.698770 -22540.509765    -23.976691
PR03 -15668.158065  -4373.841745 -19583.441411    105.008181
PR04 -24257.077654   4989.431945  -6057.273545    248.340808
PR05 -19969.023533  11671.844353  10736.642440    135.559885
PR07  16270.399105   4037.007538  19282.074348     88.091204
PR08  24280.768719  -5251.398044   5925.746478     -6.268391
PR09  -1174.340457  24855.747326  -5785.721605    201.475034
PR11  11363.710023  -1960.556858 -22735.167169     16.000885
PR12   9701.483324 -20442.138483 -11754.560691     43.236419
PR14  -7007.570515 -14699.445333  19643.891852     26.766111
PR15 -11711.109617   3740.605853  22376.759935     77.194858
PR16  -9632.837835  20358.886217  12028.537253     27.968428
PR17 -19250.473441 -16768.244209   -549.451529    110.555611
PR18 -18596.867966  -7242.218303 -15849.039812    155.343797
PR19 -10197.099431   4404.697471 -22966.322883   -286.326929
PR20   7613.871691  17774.515899 -16647.990920   -117.159527
PR21  18912.254805  17088.254005     24.838833   -123.160360
PR22  18236.009621   6554.330650  16615.002982     76.167955
PR24  -8605.644719 -17816.058601  16130.057177    -66.441062
PR25  18672.344872  17334.348270    903.032276    -99.391439
PR26  23994.050985  -4651.837995   7279.205697      7.856816
EOF
